STARLINK-35915          
1 66521U 25265F   25336.25003472 -.00278290  00000+0 -18582-2 0  9997
2 66521  42.9991 116.3924 0001519 277.1692 216.6059 15.75169190  3301
STARLINK-35946          
1 66522U 25265G   25336.25003472  .00052750  00000+0  34481-3 0  9994
2 66522  42.9990 116.3876 0001658 269.3438 226.3351 15.75008937  3306
STARLINK-35969          
1 66523U 25265H   25336.25003472  .00011062  00000+0  75027-4 0  9998
2 66523  42.9994 116.3828 0001544 271.2176 226.3615 15.75038305  3308
STARLINK-35687          
1 66524U 25265J   25336.25003472  .00022675  00000+0  15040-3 0  9999
2 66524  42.9993 116.3777 0001746 268.9815 230.5211 15.75027134  3305
STARLINK-35975          
1 66525U 25265K   25336.25003472  .00007274  00000+0  50434-4 0  9995
2 66525  42.9993 116.3733 0001592 260.2360 241.1841 15.75032258  3307
STARLINK-35932          
1 66526U 25265L   25336.25003472  .00040872  00000+0  26821-3 0  9999
2 66526  42.9993 116.3685 0001682 265.2033 238.1387 15.75011447  3203
STARLINK-35935          
1 66527U 25265M   25336.25003472 -.00009641  00000+0 -59721-4 0  9997
2 66527  42.9992 116.3640 0001578 262.2099 243.0436 15.75039754  3309
STARLINK-35928          
1 66528U 25265N   25336.25003472 -.00016188  00000+0 -10244-3 0  9998
2 66528  42.9993 116.3589 0001621 265.0461 242.1216 15.75045759  3304
STARLINK-35933          
1 66529U 25265P   25336.25003472 -.00018635  00000+0 -11845-3 0  9996
2 66529  42.9994 116.3539 0001592 269.6909 239.4066 15.75042966  3304
STARLINK-35961          
1 66530U 25265Q   25336.25003472  .00036935  00000+0  24267-3 0  9991
2 66530  42.9994 116.3492 0001581 269.2329 241.7749 15.75022972  3303
STARLINK-35960          
1 66531U 25265R   25336.25003472  .00016269  00000+0  10885-3 0  9991
2 66531  42.9996 116.3441 0001650 264.3977 248.5234 15.75031123  3304
STARLINK-35914          
1 66532U 25265S   25336.25003472 -.00059077  00000+0 -38366-3 0  9992
2 66532  42.9992 116.3395 0001754 265.1326 249.7039 15.75068254  3302
